start=new Date('2022-01-02T00:00:00.000Z').valueOf();
sats=[{"MEAN_ELEMENT_THEORY":"SGP4","SITE":"AFWTR","OBJECT_NAME":"STARLINK-3091","ECCENTRICITY":"0.00035450","LAUNCH_DATE":"2021-09-14","FILE":"3255246","SEMIMAJOR_AXIS":"6737.796","DECAY_DATE":null,"APOAPSIS":"362.050","COUNTRY_CODE":"US","OBJECT_TYPE":"PAYLOAD","MEAN_MOTION_DOT":"0.00065667","REV_AT_EPOCH":"368","PERIAPSIS":"357.273","RA_OF_ASC_NODE":"178.1737","EPHEMERIS_TYPE":"0","TLE_LINE1":"1 49172U 21082AU  22001.91667824  .00065667  00000-0  54790-3 0  9992","PERIOD":"91.735","BSTAR":"0.00054790000000","TIME_SYSTEM":"UTC","MEAN_MOTION":"15.69733622","INCLINATION":"69.9976","REF_FRAME":"TEME","RCS_SIZE":"LARGE","ELEMENT_SET_NO":"999","ARG_OF_PERICENTER":"278.7171","CENTER_NAME":"EARTH","GP_ID":"192895902","MEAN_ANOMALY":"131.4421","TLE_LINE2":"2 49172  69.9976 178.1737 0003545 278.7171 131.4421 15.69733622  3682","NORAD_CAT_ID":"49172","OBJECT_ID":"2021-082AU","EPOCH":"2022-01-01T22:00:00.999936","MEAN_MOTION_DDOT":"0.0000000000000","CLASSIFICATION_TYPE":"U"},{"TLE_LINE2":"2 49173  69.9994 177.8635 0003641 270.3337  46.3096 15.69792051  3688","MEAN_ANOMALY":"46.3096","NORAD_CAT_ID":"49173","ARG_OF_PERICENTER":"270.3337","GP_ID":"192896653","CENTER_NAME":"EARTH","CLASSIFICATION_TYPE":"U","OBJECT_ID":"2021-082AV","MEAN_MOTION_DDOT":"0.0000000000000","EPOCH":"2022-01-01T22:00:00.999936","MEAN_MOTION":"15.69792051","TIME_SYSTEM":"UTC","PERIOD":"91.732","BSTAR":"-0.00026531000000","RCS_SIZE":"LARGE","ELEMENT_SET_NO":"999","INCLINATION":"69.9994","REF_FRAME":"TEME","DECAY_DATE":null,"OBJECT_TYPE":"PAYLOAD","COUNTRY_CODE":"US","APOAPSIS":"361.947","FILE":"3255246","SEMIMAJOR_AXIS":"6737.629","EPHEMERIS_TYPE":"0","TLE_LINE1":"1 49173U 21082AV  22001.91667824 -.00031822  00000-0 -26531-3 0  9993","REV_AT_EPOCH":"368","PERIAPSIS":"357.041","MEAN_MOTION_DOT":"-0.00031822","RA_OF_ASC_NODE":"177.8635","OBJECT_NAME":"STARLINK-3045","MEAN_ELEMENT_THEORY":"SGP4","SITE":"AFWTR","LAUNCH_DATE":"2021-09-14","ECCENTRICITY":"0.00036410"},{"NORAD_CAT_ID":"49174","TLE_LINE2":"2 49174  69.9979 178.1821 0003358 281.7638 124.1197 15.69734249  3680","MEAN_ANOMALY":"124.1197","GP_ID":"192896404","CENTER_NAME":"EARTH","ARG_OF_PERICENTER":"281.7638","CLASSIFICATION_TYPE":"U","MEAN_MOTION_DDOT":"0.0000000000000","EPOCH":"2022-01-01T22:00:00.999936","OBJECT_ID":"2021-082AW","MEAN_MOTION":"15.69734249","TIME_SYSTEM":"UTC","PERIOD":"91.735","BSTAR":"0.00054608000000","ELEMENT_SET_NO":"999","RCS_SIZE":"LARGE","REF_FRAME":"TEME","INCLINATION":"69.9979","OBJECT_TYPE":"PAYLOAD","COUNTRY_CODE":"US","APOAPSIS":"361.922","DECAY_DATE":null,"SEMIMAJOR_AXIS":"6737.794","FILE":"3255246","TLE_LINE1":"1 49174U 21082AW  22001.91667824  .00065446  00000-0  54608-3 0  9997","EPHEMERIS_TYPE":"0","RA_OF_ASC_NODE":"178.1821","REV_AT_EPOCH":"368","PERIAPSIS":"357.397","MEAN_MOTION_DOT":"0.00065446","OBJECT_NAME":"STARLINK-3047","SITE":"AFWTR","MEAN_ELEMENT_THEORY":"SGP4","LAUNCH_DATE":"2021-09-14","ECCENTRICITY":"0.00033580"},{"MEAN_MOTION_DDOT":"0.0000000000000","EPOCH":"2022-01-01T22:00:00.999936","OBJECT_ID":"2021-082AX","CLASSIFICATION_TYPE":"U","GP_ID":"192895153","CENTER_NAME":"EARTH","ARG_OF_PERICENTER":"278.5541","NORAD_CAT_ID":"49175","TLE_LINE2":"2 49175  69.9982 178.1725 0003436 278.5541 133.7862 15.69779411  3687","MEAN_ANOMALY":"133.7862","REF_FRAME":"TEME","INCLINATION":"69.9982","ELEMENT_SET_NO":"999","RCS_SIZE":"LARGE","TIME_SYSTEM":"UTC","PERIOD":"91.733","BSTAR":"-0.00026185000000","MEAN_MOTION":"15.69779411","RA_OF_ASC_NODE":"178.1725","PERIAPSIS":"357.215","REV_AT_EPOCH":"368","MEAN_MOTION_DOT":"-0.00031394","TLE_LINE1":"1 49175U 21082AX  22001.91667824 -.00031394  00000-0 -26185-3 0  9994","EPHEMERIS_TYPE":"0","SEMIMAJOR_AXIS":"6737.665","FILE":"3255246","OBJECT_TYPE":"PAYLOAD","COUNTRY_CODE":"US","APOAPSIS":"361.845","DECAY_DATE":null,"ECCENTRICITY":"0.00034360","LAUNCH_DATE":"2021-09-14","SITE":"AFWTR","MEAN_ELEMENT_THEORY":"SGP4","OBJECT_NAME":"STARLINK-3087"},{"OBJECT_ID":"2021-082AY","EPOCH":"2022-01-01T22:00:00.999936","MEAN_MOTION_DDOT":"0.0000000000000","CLASSIFICATION_TYPE":"U","ARG_OF_PERICENTER":"277.2445","CENTER_NAME":"EARTH","GP_ID":"192895403","MEAN_ANOMALY":"143.5941","TLE_LINE2":"2 49176  69.9989 178.1596 0003671 277.2445 143.5941 15.69781400  3689","NORAD_CAT_ID":"49176","INCLINATION":"69.9989","REF_FRAME":"TEME","RCS_SIZE":"LARGE","ELEMENT_SET_NO":"999","PERIOD":"91.733","BSTAR":"-0.00029060000000","TIME_SYSTEM":"UTC","MEAN_MOTION":"15.69781400","MEAN_MOTION_DOT":"-0.00034808","PERIAPSIS":"357.051","REV_AT_EPOCH":"368","RA_OF_ASC_NODE":"178.1596","EPHEMERIS_TYPE":"0","TLE_LINE1":"1 49176U 21082AY  22001.91667824 -.00034808  00000-0 -29060-3 0  9993","FILE":"3255246","SEMIMAJOR_AXIS":"6737.659","DECAY_DATE":null,"APOAPSIS":"361.998","COUNTRY_CODE":"US","OBJECT_TYPE":"PAYLOAD","ECCENTRICITY":"0.00036710","LAUNCH_DATE":"2021-09-14","MEAN_ELEMENT_THEORY":"SGP4","SITE":"AFWTR","OBJECT_NAME":"STARLINK-3069"},{"COUNTRY_CODE":"US","APOAPSIS":"361.961","OBJECT_TYPE":"PAYLOAD","DECAY_DATE":null,"SEMIMAJOR_AXIS":"6737.654","FILE":"3255246","TLE_LINE1":"1 49177U 21082AZ  22001.91667824 -.00029320  00000-0 -24433-3 0  9996","EPHEMERIS_TYPE":"0","RA_OF_ASC_NODE":"178.1681","MEAN_MOTION_DOT":"-0.00029320","REV_AT_EPOCH":"368","PERIAPSIS":"357.077","OBJECT_NAME":"STARLINK-3103","SITE":"AFWTR","MEAN_ELEMENT_THEORY":"SGP4","LAUNCH_DATE":"2021-09-14","ECCENTRICITY":"0.00036240","NORAD_CAT_ID":"49177","MEAN_ANOMALY":"134.7723","TLE_LINE2":"2 49177  69.9988 178.1681 0003624 279.6726 134.7723 15.69783233  3686","CENTER_NAME":"EARTH","GP_ID":"192896154","ARG_OF_PERICENTER":"279.6726","CLASSIFICATION_TYPE":"U","EPOCH":"2022-01-01T22:00:00.999936","MEAN_MOTION_DDOT":"0.0000000000000","OBJECT_ID":"2021-082AZ","MEAN_MOTION":"15.69783233","BSTAR":"-0.00024433000000","PERIOD":"91.732","TIME_SYSTEM":"UTC","ELEMENT_SET_NO":"999","RCS_SIZE":"LARGE","REF_FRAME":"TEME","INCLINATION":"69.9988"},{"ECCENTRICITY":"0.00032330","LAUNCH_DATE":"2021-09-14","SITE":"AFWTR","MEAN_ELEMENT_THEORY":"SGP4","OBJECT_NAME":"STARLINK-3086","RA_OF_ASC_NODE":"186.5196","REV_AT_EPOCH":"359","PERIAPSIS":"569.852","MEAN_MOTION_DOT":"0.00022607","TLE_LINE1":"1 49178U 21082BA  22001.91667824  .00022607  00000-0  18970-2 0  9994","EPHEMERIS_TYPE":"0","SEMIMAJOR_AXIS":"6950.234","FILE":"3255246","OBJECT_TYPE":"PAYLOAD","APOAPSIS":"574.346","COUNTRY_CODE":"US","DECAY_DATE":null,"REF_FRAME":"TEME","INCLINATION":"69.9995","ELEMENT_SET_NO":"999","RCS_SIZE":"LARGE","TIME_SYSTEM":"UTC","PERIOD":"96.108","BSTAR":"0.00189700000000","MEAN_MOTION":"14.98316614","MEAN_MOTION_DDOT":"0.0000000000000","EPOCH":"2022-01-01T22:00:00.999936","OBJECT_ID":"2021-082BA","CLASSIFICATION_TYPE":"U","GP_ID":"192896904","CENTER_NAME":"EARTH","ARG_OF_PERICENTER":"282.8410","NORAD_CAT_ID":"49178","TLE_LINE2":"2 49178  69.9995 186.5196 0003233 282.8410 251.4411 14.98316614  3598","MEAN_ANOMALY":"251.4411"},{"SITE":"AFWTR","MEAN_ELEMENT_THEORY":"SGP4","OBJECT_NAME":"STARLINK-3043","ECCENTRICITY":"0.00033250","LAUNCH_DATE":"2021-09-14","SEMIMAJOR_AXIS":"6737.764","FILE":"3255246","COUNTRY_CODE":"US","APOAPSIS":"361.870","OBJECT_TYPE":"PAYLOAD","DECAY_DATE":null,"RA_OF_ASC_NODE":"178.1689","MEAN_MOTION_DOT":"0.00069599","PERIAPSIS":"357.389","REV_AT_EPOCH":"368","TLE_LINE1":"1 49179U 21082BB  22001.91667824  .00069599  00000-0  58008-3 0  9993","EPHEMERIS_TYPE":"0","BSTAR":"0.00058008000000","PERIOD":"91.735","TIME_SYSTEM":"UTC","MEAN_MOTION":"15.69744775","REF_FRAME":"TEME","INCLINATION":"69.9983","ELEMENT_SET_NO":"999","RCS_SIZE":"LARGE","CENTER_NAME":"EARTH","GP_ID":"192895653","ARG_OF_PERICENTER":"278.2618","NORAD_CAT_ID":"49179","MEAN_ANOMALY":"138.3437","TLE_LINE2":"2 49179  69.9983 178.1689 0003325 278.2618 138.3437 15.69744775  3684","EPOCH":"2022-01-01T22:00:00.999936","MEAN_MOTION_DDOT":"0.0000000000000","OBJECT_ID":"2021-082BB","CLASSIFICATION_TYPE":"U"},{"MEAN_MOTION_DDOT":"0.0000000000000","EPOCH":"2022-01-01T22:00:00.999936","OBJECT_ID":"2021-082BC","CLASSIFICATION_TYPE":"U","GP_ID":"192895903","CENTER_NAME":"EARTH","ARG_OF_PERICENTER":"278.3035","NORAD_CAT_ID":"49180","TLE_LINE2":"2 49180  69.9988 178.1579 0003425 278.3035 144.6974 15.69773190  3683","MEAN_ANOMALY":"144.6974","REF_FRAME":"TEME","INCLINATION":"69.9988","ELEMENT_SET_NO":"999","RCS_SIZE":"LARGE","TIME_SYSTEM":"UTC","PERIOD":"91.733","BSTAR":"-0.00025727000000","MEAN_MOTION":"15.69773190","RA_OF_ASC_NODE":"178.1579","REV_AT_EPOCH":"368","PERIAPSIS":"357.240","MEAN_MOTION_DOT":"-0.00030842","TLE_LINE1":"1 49180U 21082BC  22001.91667824 -.00030842  00000-0 -25727-3 0  9998","EPHEMERIS_TYPE":"0","SEMIMAJOR_AXIS":"6737.683","FILE":"3255246","OBJECT_TYPE":"PAYLOAD","APOAPSIS":"361.856","COUNTRY_CODE":"US","DECAY_DATE":null,"ECCENTRICITY":"0.00034250","LAUNCH_DATE":"2021-09-14","SITE":"AFWTR","MEAN_ELEMENT_THEORY":"SGP4","OBJECT_NAME":"STARLINK-3050"},{"OBJECT_TYPE":"PAYLOAD","COUNTRY_CODE":"US","APOAPSIS":"574.451","DECAY_DATE":null,"SEMIMAJOR_AXIS":"6950.274","FILE":"3255246","TLE_LINE1":"1 49181U 21082BD  22001.91667824  .00036925  00000-0  30882-2 0  9992","EPHEMERIS_TYPE":"0","RA_OF_ASC_NODE":"186.5109","REV_AT_EPOCH":"360","PERIAPSIS":"569.827","MEAN_MOTION_DOT":"0.00036925","OBJECT_NAME":"STARLINK-3059","SITE":"AFWTR","MEAN_ELEMENT_THEORY":"SGP4","LAUNCH_DATE":"2021-09-14","ECCENTRICITY":"0.00033270","NORAD_CAT_ID":"49181","TLE_LINE2":"2 49181  69.9991 186.5109 0003327 274.0689   3.1582 14.98303810  3604","MEAN_ANOMALY":"3.1582","GP_ID":"192896654","CENTER_NAME":"EARTH","ARG_OF_PERICENTER":"274.0689","CLASSIFICATION_TYPE":"U","MEAN_MOTION_DDOT":"0.0000000000000","EPOCH":"2022-01-01T22:00:00.999936","OBJECT_ID":"2021-082BD","MEAN_MOTION":"14.98303810","TIME_SYSTEM":"UTC","PERIOD":"96.109","BSTAR":"0.00308820000000","ELEMENT_SET_NO":"999","RCS_SIZE":"LARGE","REF_FRAME":"TEME","INCLINATION":"69.9991"}];
